OBJECT_NAME,OBJECT_ID,EPOCH,MEAN_MOTION,ECCENTRICITY,INCLINATION,RA_OF_ASC_NODE,ARG_OF_PERICENTER,MEAN_ANOMALY,EPHEMERIS_TYPE,CLASSIFICATION_TYPE,NORAD_CAT_ID,ELEMENT_SET_NO,REV_AT_EPOCH,BSTAR,MEAN_MOTION_DOT,MEAN_MOTION_DDOT
SCD 1,1993-009B,2026-06-25T16:07:58.097280,14.46121573,.0041706,24.9680,155.1842,227.5526,294.0303,0,U,22490,999,76234,.52016E-4,.377E-5,0
TECHSAT 1B (GO-32),1998-043D,2026-06-25T23:38:45.281184,14.24429963,.0001499,99.0071,169.9659,146.3485,213.7789,0,U,25397,999,45258,.45556E-4,.59E-6,0
SCD 2,1998-060A,2026-06-25T21:03:29.563200,14.45528821,.0016631,24.9966,18.5663,214.4412,274.0497,0,U,25504,999,46158,.51475E-4,.367E-5,0
DLR-TUBSAT,1999-029B,2026-06-25T23:21:58.605408,14.52428794,.0013537,98.6697,172.7668,327.6974,32.3391,0,U,25757,999,43452,.33362E-4,.87E-6,0
TERRA,1999-068A,2026-06-26T04:32:47.082048,14.61109674,.0002293,97.9451,226.3786,163.3171,233.0500,0,U,25994,999,41092,.84279E-4,.37E-5,0
MAROC-TUBSAT,2001-056D,2026-06-26T05:25:35.812416,13.70262796,.002054,99.8086,354.2561,118.8322,60.5778,0,U,27004,999,22742,.3402E-4,-.17E-6,0
AQUA,2002-022A,2026-06-26T05:21:43.273728,14.62170836,.0000792,98.4280,146.6869,65.7405,351.9250,0,U,27424,999,28459,.16026E-3,.757E-5,0
SHIYAN-1 (SY-1),2004-012A,2026-06-26T04:28:13.931040,15.33979243,.0004808,97.8696,255.8401,0.6274,359.4972,0,U,28220,999,21247,.47543E-3,.15562E-3,0
AURA,2004-026A,2026-06-26T03:52:10.255584,14.61341638,.0001171,98.3420,133.6889,82.5487,277.5847,0,U,28376,999,16752,.16066E-3,.746E-5,0
IRS-P5 (CARTOSAT-1),2005-017A,2026-06-26T00:05:17.406816,14.91070554,.0002366,97.5305,199.6682,69.0595,291.0877,0,U,28649,999,14513,.14935E-3,.1427E-4,0
SINAH 1,2005-043D,2026-06-26T03:26:18.246336,14.64163227,.0013253,98.2870,311.5183,246.0264,113.9551,0,U,28893,999,10183,.70035E-4,.319E-5,0
RESURS-DK 1,2006-021A,2026-06-26T03:46:49.384992,15.13251602,.0006743,69.9337,316.3330,287.6006,72.4424,0,U,29228,999,10393,.13662E-3,.2327E-4,0
ARIRANG-2 (KOMPSAT-2),2006-031A,2026-06-26T04:30:11.337408,14.64665154,.0015673,97.8311,1.1990,48.5536,84.6155,0,U,29268,999,6279,.81777E-4,.391E-5,0
LAPAN-TUBSAT,2007-001A,2026-06-26T03:25:51.217824,14.85956595,.001264,98.1344,176.5686,150.8452,209.3471,0,U,29709,999,5248,.46572E-4,.349E-5,0
HAIYANG-1B,2007-010A,2026-06-25T22:54:50.222016,14.31028992,.0013624,98.3498,158.4600,170.0353,190.1103,0,U,31113,999,189,.50799E-4,.92E-6,0
COSMO-SKYMED 1,2007-023A,2026-06-26T03:47:23.110368,14.97146419,.0001827,97.8861,9.0892,90.6304,269.5127,0,U,31598,999,3113,.272E-3,.3082E-4,0
TERRASAR-X,2007-026A,2026-06-24T13:39:19.109088,15.19150427,.00016263,97.4447,183.1695,88.3572,271.7849,0,U,31698,999,5434,.81449017E-4,.1644E-4,0
WORLDVIEW-1 (WV-1),2007-041A,2026-06-26T03:42:04.899168,15.24358813,.0001403,97.3880,296.7695,347.5088,12.6114,0,U,32060,999,4424,.28084E-3,.6805E-4,0
YAOGAN-3,2007-055A,2026-06-26T04:31:26.544288,14.90815705,.0001901,97.8158,206.9778,82.3836,277.7597,0,U,32289,999,721,.25668E-3,.247E-4,0
COSMO-SKYMED 2,2007-059A,2026-06-26T03:21:30.821184,14.82152133,.0001357,97.8888,0.6080,88.0987,272.0381,0,U,32376,999,333,.60939E-4,.433E-5,0
RADARSAT-2,2007-061A,2026-06-26T03:12:59.734080,14.29983280,.0001293,98.5780,183.9384,83.9938,276.1392,0,U,32382,999,96723,.21401E-4,.12E-6,0
CARTOSAT-2A,2008-021A,2026-06-26T04:16:52.074336,14.79252641,.0013363,97.7634,225.5802,83.0508,277.2224,0,U,32783,999,98013,.16244E-3,.1159E-4,0
HUANJING 1A (HJ-1A),2008-041A,2026-06-26T04:50:15.514944,14.84008322,.0020574,97.6684,162.6915,106.9990,253.3481,0,U,33320,999,95974,.24042E-3,.1958E-4,0
HUANJING 1B (HJ-1B),2008-041B,2026-06-26T05:48:46.927584,14.83329134,.0036834,97.6520,165.8747,151.3833,208.9413,0,U,33321,999,95975,.66705E-4,.501E-5,0
GEOEYE 1,2008-042A,2026-06-26T04:03:39.960000,14.64634006,.0005296,98.1333,250.9868,43.6851,316.4770,0,U,33331,999,95146,.26584E-3,.1365E-4,0
THEOS,2008-049A,2026-06-26T04:45:56.244096,14.20134655,.0001164,98.5571,234.1897,82.4778,277.6531,0,U,33396,999,91924,.75268E-4,.118E-5,0
COSMO-SKYMED 3,2008-054A,2026-06-26T04:09:51.327072,15.07000730,.0014347,97.8273,35.8939,233.2831,126.7079,0,U,33412,999,95829,.32077E-3,.4748E-4,0
YAOGAN-4,2008-061A,2026-06-25T19:15:19.298016,14.83215733,.0015383,97.9307,110.2489,46.9056,313.3442,0,U,33446,999,94694,.12741E-3,.989E-5,0
GOSAT (IBUKI),2009-002A,2026-06-25T20:46:34.098816,14.67538218,.0001346,98.0901,287.8385,83.6807,276.4551,0,U,33492,999,93273,-.58417E-5,-.81E-6,0
DEIMOS-1,2009-041A,2026-06-26T04:58:34.176000,14.75245555,.0002182,97.7411,334.0444,118.8829,241.2600,0,U,35681,999,90821,.86029E-4,.534E-5,0
DUBAISAT-1,2009-041B,2026-06-25T23:24:01.357344,14.75136309,.001132,98.0059,310.1367,48.4255,311.7922,0,U,35682,999,90639,.13037E-3,.829E-5,0
