SCD 1                   
1 22490U 93009B   26176.67220020  .00000377  00000+0  52016-4 0  9993
2 22490  24.9680 155.1842 0041706 227.5526 294.0303 14.46121573762348
TECHSAT 1B (GO-32)      
1 25397U 98043D   26176.98524631  .00000059  00000+0  45556-4 0  9992
2 25397  99.0071 169.9659 0001499 146.3485 213.7789 14.24429963452588
SCD 2                   
1 25504U 98060A   26176.87742550  .00000367  00000+0  51475-4 0  9990
2 25504  24.9966  18.5663 0016631 214.4412 274.0497 14.45528821461585
DLR-TUBSAT              
1 25757U 99029B   26176.97359497  .00000087  00000+0  33362-4 0  9995
2 25757  98.6697 172.7668 0013537 327.6974  32.3391 14.52428794434522
TERRA                   
1 25994U 99068A   26177.18943382  .00000370  00000+0  84279-4 0  9995
2 25994  97.9451 226.3786 0002293 163.3171 233.0500 14.61109674410926
MAROC-TUBSAT            
1 27004U 01056D   26177.22610894 -.00000017  00000+0  34020-4 0  9991
2 27004  99.8086 354.2561 0020540 118.8322  60.5778 13.70262796227420
AQUA                    
1 27424U 02022A   26177.22341752  .00000757  00000+0  16026-3 0  9990
2 27424  98.4280 146.6869 0000792  65.7405 351.9250 14.62170836284598
SHIYAN-1 (SY-1)         
1 28220U 04012A   26177.18627235  .00015562  00000+0  47543-3 0  9992
2 28220  97.8696 255.8401 0004808   0.6274 359.4972 15.33979243212476
AURA                    
1 28376U 04026A   26177.16122981  .00000746  00000+0  16066-3 0  9999
2 28376  98.3420 133.6889 0001171  82.5487 277.5847 14.61341638167524
IRS-P5 (CARTOSAT-1)     
1 28649U 05017A   26177.00367369  .00001427  00000+0  14935-3 0  9997
2 28649  97.5305 199.6682 0002366  69.0595 291.0877 14.91070554145136
SINAH 1                 
1 28893U 05043D   26177.14326674  .00000319  00000+0  70035-4 0  9999
2 28893  98.2870 311.5183 0013253 246.0264 113.9551 14.64163227101830
RESURS-DK 1             
1 29228U 06021A   26177.15751603  .00002327  00000+0  13662-3 0  9997
2 29228  69.9337 316.3330 0006743 287.6006  72.4424 15.13251602103935
ARIRANG-2 (KOMPSAT-2)   
1 29268U 06031A   26177.18763122  .00000391  00000+0  81777-4 0  9996
2 29268  97.8311   1.1990 0015673  48.5536  84.6155 14.64665154 62796
LAPAN-TUBSAT            
1 29709U 07001A   26177.14295391  .00000349  00000+0  46572-4 0  9995
2 29709  98.1344 176.5686 0012640 150.8452 209.3471 14.85956595 52487
HAIYANG-1B              
1 31113U 07010A   26176.95474794  .00000092  00000+0  50799-4 0  9992
2 31113  98.3498 158.4600 0013624 170.0353 190.1103 14.31028992  1893
COSMO-SKYMED 1          
1 31598U 07023A   26177.15790637  .00003082  00000+0  27200-3 0  9995
2 31598  97.8861   9.0892 0001827  90.6304 269.5127 14.97146419 31131
TERRASAR-X              
1 31698U 07026A   26175.56897117  .00001644  00000+0  81449-4 0  9991
2 31698  97.4447 183.1695 0001626  88.3572 271.7849 15.19150427 54344
WORLDVIEW-1 (WV-1)      
1 32060U 07041A   26177.15422337  .00006805  00000+0  28084-3 0  9996
2 32060  97.3880 296.7695 0001403 347.5088  12.6114 15.24358813 44244
YAOGAN-3                
1 32289U 07055A   26177.18850167  .00002470  00000+0  25668-3 0  9992
2 32289  97.8158 206.9778 0001901  82.3836 277.7597 14.90815705  7218
COSMO-SKYMED 2          
1 32376U 07059A   26177.13994006  .00000433  00000+0  60939-4 0  9997
2 32376  97.8888   0.6080 0001357  88.0987 272.0381 14.82152133  3333
RADARSAT-2              
1 32382U 07061A   26177.13402470  .00000012  00000+0  21401-4 0  9990
2 32382  98.5780 183.9384 0001293  83.9938 276.1392 14.29983280967231
CARTOSAT-2A             
1 32783U 08021A   26177.17838049  .00001159  00000+0  16244-3 0  9992
2 32783  97.7634 225.5802 0013363  83.0508 277.2224 14.79252641980133
HUANJING 1A (HJ-1A)     
1 33320U 08041A   26177.20156846  .00001958  00000+0  24042-3 0  9996
2 33320  97.6684 162.6915 0020574 106.9990 253.3481 14.84008322959747
HUANJING 1B (HJ-1B)     
1 33321U 08041B   26177.24220981  .00000501  00000+0  66705-4 0  9999
2 33321  97.6520 165.8747 0036834 151.3833 208.9413 14.83329134959759
GEOEYE 1                
1 33331U 08042A   26177.16921250  .00001365  00000+0  26584-3 0  9998
2 33331  98.1333 250.9868 0005296  43.6851 316.4770 14.64634006951466
THEOS                   
1 33396U 08049A   26177.19856764  .00000118  00000+0  75268-4 0  9995
2 33396  98.5571 234.1897 0001164  82.4778 277.6531 14.20134655919240
COSMO-SKYMED 3          
1 33412U 08054A   26177.17351073  .00004748  00000+0  32077-3 0  9994
2 33412  97.8273  35.8939 0014347 233.2831 126.7079 15.07000730958297
YAOGAN-4                
1 33446U 08061A   26176.80230669  .00000989  00000+0  12741-3 0  9994
2 33446  97.9307 110.2489 0015383  46.9056 313.3442 14.83215733946941
GOSAT (IBUKI)           
1 33492U 09002A   26176.86567244 -.00000081  00000+0 -58417-5 0  9996
2 33492  98.0901 287.8385 0001346  83.6807 276.4551 14.67538218932736
DEIMOS-1                
1 35681U 09041A   26177.20734000  .00000534  00000+0  86029-4 0  9996
2 35681  97.7411 334.0444 0002182 118.8829 241.2600 14.75245555908214
DUBAISAT-1              
1 35682U 09041B   26176.97501571  .00000829  00000+0  13037-3 0  9990
2 35682  98.0059 310.1367 0011320  48.4255 311.7922 14.75136309906394
